{
    "links": {
        "self": "http://www.neowsapp.com/rest/v1/neo/3719213?api_key=iIulBulltgU6a56xZRHN4H3l9WmuAYTsLGpBGhQ2"
    },
    "id": "3719213",
    "neo_reference_id": "3719213",
    "name": "(2015 JG2)",
    "designation": "2015 JG2",
    "nasa_jpl_url": "http://ssd.jpl.nasa.gov/sbdb.cgi?sstr=3719213",
    "absolute_magnitude_h": 23.3,
    "estimated_diameter": {
        "kilometers": {
            "estimated_diameter_min": 0.058150704,
            "estimated_diameter_max": 0.130028927
        },
        "meters": {
            "estimated_diameter_min": 58.1507039646,
            "estimated_diameter_max": 130.0289270043
        },
        "miles": {
            "estimated_diameter_min": 0.0361331611,
            "estimated_diameter_max": 0.0807962044
        },
        "feet": {
            "estimated_diameter_min": 190.7831555951,
            "estimated_diameter_max": 426.6041048727
        }
    },
    "is_potentially_hazardous_asteroid": false,
    "close_approach_data": [
        {
            "close_approach_date": "1913-04-28",
            "close_approach_date_full": "1913-Apr-28 13:01",
            "epoch_date_close_approach": -1788605940000,
            "relative_velocity": {
                "kilometers_per_second": "10.8300226747",
                "kilometers_per_hour": "38988.081628848",
                "miles_per_hour": "24225.6777209917"
            },
            "miss_distance": {
                "astronomical": "0.4744108137",
                "lunar": "184.5458065293",
                "kilometers": "70970847.234486819",
                "miles": "44099239.5625993422"
            },
            "orbiting_body": "Earth"
        },
        {
            "close_approach_date": "2006-10-01",
            "close_approach_date_full": "2006-Oct-01 14:09",
            "epoch_date_close_approach": 1159711740000,
            "relative_velocity": {
                "kilometers_per_second": "30.7923499872",
                "kilometers_per_hour": "110852.4599540521",
                "miles_per_hour": "68879.4076864498"
            },
            "miss_distance": {
                "astronomical": "0.4939095755",
                "lunar": "192.1308248695",
                "kilometers": "73887820.467404185",
                "miles": "45911762.681720353"
            },
            "orbiting_body": "Earth"
        },
        {
            "close_approach_date": "2015-05-01",
            "close_approach_date_full": "2015-May-01 02:08",
            "epoch_date_close_approach": 1430446080000,
            "relative_velocity": {
                "kilometers_per_second": "18.4212563603",
                "kilometers_per_hour": "66316.5228970573",
                "miles_per_hour": "41206.508352341"
            },
            "miss_distance": {
                "astronomical": "0.039092883",
                "lunar": "15.207131487",
                "kilometers": "5848212.02895921",
                "miles": "3633910.448128698"
            },
            "orbiting_body": "Earth"
        },
        {
            "close_approach_date": "2017-10-17",
            "close_approach_date_full": "2017-Oct-17 05:02",
            "epoch_date_close_approach": 1508216520000,
            "relative_velocity": {
                "kilometers_per_second": "22.0133320671",
                "kilometers_per_hour": "79247.9954417026",
                "miles_per_hour": "49241.6225009846"
            },
            "miss_distance": {
                "astronomical": "0.1793393815",
                "lunar": "69.7630194035",
                "kilometers": "26828789.479517405",
                "miles": "16670636.754873989"
            },
            "orbiting_body": "Earth"
        },
        {
            "close_approach_date": "2195-05-02",
            "close_approach_date_full": "2195-May-02 20:23",
            "epoch_date_close_approach": 7110879780000,
            "relative_velocity": {
                "kilometers_per_second": "18.5861070677",
                "kilometers_per_hour": "66909.9854436109",
                "miles_per_hour": "41575.2628996704"
            },
            "miss_distance": {
                "astronomical": "0.0464448895",
                "lunar": "18.0670620155",
                "kilometers": "6948056.541585365",
                "miles": "4317322.138053437"
            },
            "orbiting_body": "Earth"
        }
    ],
    "orbital_data": {
        "orbit_id": "6",
        "orbit_determination_date": "2017-04-06 08:33:46",
        "first_observation_date": "2015-05-13",
        "last_observation_date": "2015-05-24",
        "data_arc_in_days": 11,
        "observations_used": 19,
        "orbit_uncertainty": "8",
        "minimum_orbit_intersection": ".00571372",
        "jupiter_tisserand_invariant": "4.996",
        "epoch_osculation": "2457156.5",
        "eccentricity": ".4752589102748405",
        "semi_major_axis": "1.241144916572706",
        "inclination": "20.72003836197498",
        "ascending_node_longitude": "217.726567597124",
        "orbital_period": "505.0474307765729",
        "perihelion_distance": ".6512797360292039",
        "perihelion_argument": "265.6069924951469",
        "aphelion_distance": "1.831010097116208",
        "perihelion_time": "2457086.079879672777",
        "mean_anomaly": "50.19576731401169",
        "mean_motion": ".7128043388844796",
        "equinox": "J2000",
        "orbit_class": {
            "orbit_class_type": "APO",
            "orbit_class_description": "Near-Earth asteroid orbits which cross the Earth’s orbit similar to that of 1862 Apollo",
            "orbit_class_range": "a (semi-major axis) > 1.0 AU; q (perihelion) < 1.017 AU"
        }
    },
    "is_sentry_object": false
}